      2.10          N: GNSS NAV DATA                        RINEX VERSION / TYPE
fic2rin                                 02/22/2022 00:17:27 PGM / RUN BY / DATE
                                                            END OF HEADER
 3 22  2 21  1 59 44.0-1.308270730078e-04-1.762145984685e-11 0.000000000000e+00
    7.000000000000e+00 3.375000000000e+00 4.675194740627e-09 1.097754449811e+00
    1.545995473862e-07 3.890683641657e-03 4.652887582779e-06 5.153670818329e+03
    9.358400000000e+04-4.470348358154e-08-9.999265987050e-01 3.539025783539e-08
    9.724640305045e-01 2.955625000000e+02 9.566850897283e-01-8.337132989339e-09
    7.357449324439e-11 1.000000000000e+00 2.198000000000e+03 0.000000000000e+00
    2.400000000000e+00 0.000000000000e+00 1.862645149231e-09 7.000000000000e+00
    8.640000000000e+04 4.000000000000e+00
16 22  2 21  1 59 44.0-4.720450378954e-04-4.774847184308e-12 0.000000000000e+00
    1.100000000000e+01 2.084375000000e+01 4.735197239972e-09-9.238912077086e-01
    1.398846507072e-06 1.277526712511e-02 3.382563591003e-06 5.153601751328e+03
    9.358400000000e+04 2.235174179077e-07 2.231631805337e+00 1.043081283569e-07
    9.700054811018e-01 3.143437500000e+02 7.093231858378e-01-8.482139029423e-09
    1.178620522847e-10 1.000000000000e+00 2.198000000000e+03 0.000000000000e+00
    2.400000000000e+00 0.000000000000e+00-1.024454832077e-08 1.100000000000e+01
    8.640000000000e+04 4.000000000000e+00
 8 22  2 21  1 59 44.0-5.698390305042e-05-1.477928890381e-12 0.000000000000e+00
    5.500000000000e+01-6.950000000000e+01 4.553761111000e-09-1.777106673500e+00
   -3.874301910400e-06 7.320578093641e-03 8.465722203255e-06 5.153723632812e+03
    9.358400000000e+04 6.146728992462e-08-3.114878250953e+00-9.499490261078e-08
    9.649469839494e-01 2.177812500000e+02 1.106258022487e-01-8.187483898711e-09
   -2.814402945465e-10 1.000000000000e+00 2.198000000000e+03 0.000000000000e+00
    2.400000000000e+00 0.000000000000e+00 5.122274160385e-09 5.500000000000e+01
    8.640000000000e+04 4.000000000000e+00
26 22  2 21  1 59 44.0 1.849583350122e-04 3.183231456205e-12 0.000000000000e+00
    2.000000000000e+00 3.934375000000e+01 5.441655238212e-09 1.928509751886e-02
    2.169981598854e-06 6.898480001837e-03 3.451481461525e-06 5.153699718475e+03
    9.358400000000e+04 1.471489667892e-07 2.089079344757e+00 2.235174179077e-08
    9.382773436804e-01 3.003437500000e+02 3.711480981623e-01-8.830367820264e-09
    1.917937032633e-10 1.000000000000e+00 2.198000000000e+03 0.000000000000e+00
    2.400000000000e+00 0.000000000000e+00 6.984919309616e-09 2.000000000000e+00
    8.640000000000e+04 4.000000000000e+00
21 22  2 21  1 59 44.0 1.583676785231e-04 5.684341886081e-13 0.000000000000e+00
    3.100000000000e+01 3.793750000000e+01 4.399111812093e-09-1.673281049912e+00
    2.117827534676e-06 2.458873670548e-02 1.226551830769e-05 5.153587450027e+03
    9.358400000000e+04-5.662441253662e-07-2.126383789426e+00 3.017485141754e-07
    9.594404052297e-01 1.494062500000e+02-1.000729319410e+00-8.111766459061e-09
    2.982267080537e-10 1.000000000000e+00 2.198000000000e+03 0.000000000000e+00
    2.400000000000e+00 0.000000000000e+00-1.024454832077e-08 3.100000000000e+01
    8.640000000000e+04 4.000000000000e+00
23 22  2 21  1 59 44.0-5.429610610008e-07-3.410605131648e-12 0.000000000000e+00
    7.700000000000e+01 1.043750000000e+01 4.802700051735e-09 1.526337908432e+00
    6.463378667831e-07 1.989520038478e-03 4.297122359276e-06 5.153697502136e+03
    9.358400000000e+04 5.774199962616e-08-1.027604909286e+00 2.980232238770e-08
    9.673307884787e-01 2.996250000000e+02 2.971432652554e+00-8.378563286506e-09
    3.071556514086e-11 1.000000000000e+00 2.198000000000e+03 0.000000000000e+00
    2.400000000000e+00 0.000000000000e+00-8.381903171539e-09 8.450000000000e+02
    8.640000000000e+04 4.000000000000e+00
 2 22  2 21  2  0  0.0-6.512189283967e-04-6.821210263297e-13 0.000000000000e+00
    7.900000000000e+01 6.750000000000e+00 4.264463346301e-09 2.394756182750e+00
    4.656612873077e-07 2.064718224574e-02 9.950250387192e-06 5.153697500229e+03
    9.360000000000e+04 2.607703208923e-07-2.124719999528e+00-1.266598701477e-07
    9.651888145483e-01 1.821562500000e+02-1.439992695899e+00-7.601030899161e-09
    5.321650239522e-11 1.000000000000e+00 2.198000000000e+03 0.000000000000e+00
    2.400000000000e+00 0.000000000000e+00-1.769512891769e-08 7.900000000000e+01
    8.640000000000e+04 4.000000000000e+00
 1 22  2 21  2  0  0.0 4.263636656106e-04-9.436007530894e-12 0.000000000000e+00
    6.900000000000e+01 2.650000000000e+01 3.853017636507e-09 2.253218795676e+00
    1.244246959686e-06 1.141204452142e-02 1.177750527859e-05 5.153672643661e+03
    9.360000000000e+04-1.192092895508e-07-2.035332597647e+00-2.123415470123e-07
    9.868394169542e-01 1.639062500000e+02 8.813590282098e-01-7.598887952756e-09
    3.332281660049e-10 1.000000000000e+00 2.198000000000e+03 0.000000000000e+00
    2.400000000000e+00 0.000000000000e+00 5.122274160385e-09 6.900000000000e+01
    8.640000000000e+04 4.000000000000e+00
 7 22  2 21  2  0  0.0 3.117187879980e-04 2.614797267597e-12 0.000000000000e+00
    2.800000000000e+01 5.318750000000e+01 4.562690054355e-09 1.581499104220e+00
    2.823770046234e-06 1.556203642394e-02 1.200288534164e-05 5.153699832916e+03
    9.360000000000e+04-3.334134817123e-07 1.099892511898e+00 2.980232238770e-08
    9.508645951214e-01 1.449687500000e+02-2.289845978030e+00-8.228557038144e-09
    1.700070814773e-10 1.000000000000e+00 2.198000000000e+03 0.000000000000e+00
    2.400000000000e+00 0.000000000000e+00-1.117587089539e-08 2.800000000000e+01
    8.640000000000e+04 4.000000000000e+00
 5 22  2 21  2  0  0.0-7.215142250061e-05-1.364242052659e-12 0.000000000000e+00
    8.300000000000e+01 7.500000000000e+00 4.845201822104e-09-1.376438088091e+00
    4.302710294724e-07 5.863063735887e-03 4.587695002556e-06 5.153666360855e+03
    9.360000000000e+04 9.126961231232e-08-1.040410529046e+00 7.078051567078e-08
    9.594434261555e-01 2.901562500000e+02 1.009067703766e+00-8.367491396746e-09
    9.464679956196e-11 1.000000000000e+00 2.198000000000e+03 0.000000000000e+00
    2.400000000000e+00 0.000000000000e+00-1.117587089539e-08 8.300000000000e+01
    8.640000000000e+04 4.000000000000e+00
 6 22  2 21  2  0  0.0 2.080588601530e-04 1.205080479849e-11 0.000000000000e+00
    5.200000000000e+01 2.028125000000e+01 3.926234972018e-09 2.573042986300e+00
    1.335516571999e-06 2.698225202039e-03 1.063197851181e-05 5.153675794601e+03
    9.360000000000e+04 1.247972249985e-07-2.043602804168e+00 3.725290298462e-08
    9.862163440522e-01 1.868125000000e+02-9.503031608096e-01-7.741751046434e-09
    2.382242087088e-10 1.000000000000e+00 2.198000000000e+03 0.000000000000e+00
    2.400000000000e+00 0.000000000000e+00 3.725290298462e-09 5.200000000000e+01
    8.640000000000e+04 4.000000000000e+00
 4 22  2 21  2  0  0.0-1.883096992970e-04 2.387423592154e-12 0.000000000000e+00
    1.670000000000e+02-6.153125000000e+01 4.443399371133e-09-2.257488677579e+00
   -3.261491656303e-06 1.704923226498e-03 9.780749678612e-06 5.153652189255e+03
    9.360000000000e+04 1.676380634308e-08 8.126237827566e-02 4.097819328308e-08
    9.615664655372e-01 1.918125000000e+02-3.051681790361e+00-7.998547457321e-09
   -4.050168705784e-10 1.000000000000e+00 2.198000000000e+03 0.000000000000e+00
    2.400000000000e+00 0.000000000000e+00-4.190951585770e-09 6.790000000000e+02
    8.640000000000e+04 4.000000000000e+00
10 22  2 21  2  0  0.0-3.262003883719e-04-1.068656274583e-11 0.000000000000e+00
    4.400000000000e+01 4.062500000000e+00 4.725553981148e-09 2.171184337514e-01
    2.719461917877e-07 7.519215112552e-03 4.148110747337e-06 5.153672624588e+03
    9.360000000000e+04 4.470348358154e-08-1.002713429851e+00 9.499490261078e-08
    9.722884788721e-01 3.033750000000e+02-2.511262592373e+00-8.431065473433e-09
    9.286101089098e-12 1.000000000000e+00 2.198000000000e+03 0.000000000000e+00
    2.400000000000e+00 0.000000000000e+00 2.328306436539e-09 4.400000000000e+01
    8.640000000000e+04 4.000000000000e+00
 9 22  2 21  2  0  0.0-3.532660193741e-04 1.705302565824e-12 0.000000000000e+00
    2.500000000000e+01-6.628125000000e+01 4.717339353262e-09-1.400868999954e+00
   -3.481283783913e-06 2.236616914161e-03 9.149312973022e-06 5.153618494034e+03
    9.360000000000e+04 2.607703208923e-08 2.828334862928e-02 7.078051567078e-08
    9.545574977456e-01 1.999062500000e+02 1.871272474924e+00-8.191055476053e-09
   -4.350181202508e-10 1.000000000000e+00 2.198000000000e+03 0.000000000000e+00
    2.400000000000e+00 0.000000000000e+00 1.396983861923e-09 2.500000000000e+01
    8.640000000000e+04 4.000000000000e+00
31 22  2 21  2  0  0.0-1.656753011048e-04-1.705302565824e-12 0.000000000000e+00
    2.200000000000e+01 6.421875000000e+01 4.430541692702e-09 1.129046583516e+00
    3.516674041748e-06 1.045838301070e-02 1.068785786629e-05 5.153695884705e+03
    9.360000000000e+04-1.415610313416e-07 1.118012855986e+00 1.378357410431e-07
    9.550798341087e-01 1.714062500000e+02 3.767198659745e-01-8.028548706994e-09
    1.403629895391e-10 1.000000000000e+00 2.198000000000e+03 0.000000000000e+00
    2.400000000000e+00 0.000000000000e+00-1.350417733192e-08 2.200000000000e+01
    8.640000000000e+04 4.000000000000e+00
29 22  2 21  2  0  0.0-4.827389493585e-04-4.661160346586e-12 0.000000000000e+00
    5.500000000000e+01-5.084375000000e+01 4.110171205129e-09-1.677797699763e+00
   -2.639368176460e-06 1.854567090049e-03 8.853152394295e-06 5.153751453400e+03
    9.360000000000e+04-8.381903171539e-08-3.019925714131e+00-9.313225746155e-09
    9.821015051326e-01 2.243125000000e+02 2.246715979984e+00-7.891042979328e-09
   -2.971552348511e-10 1.000000000000e+00 2.198000000000e+03 0.000000000000e+00
    2.400000000000e+00 0.000000000000e+00-1.024454832077e-08 5.500000000000e+01
    8.640000000000e+04 4.000000000000e+00
